MEAN_MOTION;ECCENTRICITY;INCLINATION;RA_OF_ASC_NODE;ARG_OF_PERICENTER;MEAN_ANOMALY;BSTAR;MEAN_MOTION_DOT;MEAN_MOTION_DDOT;TYPE
14.32312386;0.0011701;98.7442;30.6696;103.8993;313.5571;1.4241E-5;-7.0E-8;0;Amateur
14.32312467;0.0011712;98.7444;31.7247;101.1285;309.7009;1.3382E-5;-9.0E-8;0;Amateur
14.32312461;0.001172;98.7444;31.9387;100.5656;324.1284;1.2247E-5;-1.2E-7;0;Amateur
14.32312517;0.0011722;98.7445;32.7135;98.5045;326.5134;1.0236E-5;-1.8E-7;0;Amateur
14.32312543;0.0011732;98.7447;33.2858;96.9681;13.2889;8.7498E-6;-2.2E-7;0;Amateur
14.32312573;0.0011735;98.7447;33.6906;95.8922;283.6959;9.1976E-6;-2.0E-7;0;Amateur
14.32312608;0.0011744;98.7448;34.2095;94.5177;57.1002;9.3136E-6;-2.0E-7;0;Amateur
14.3231271;0.0011739;98.7451;35.6648;90.6869;299.4879;9.5201E-6;-2.0E-7;0;Amateur
14.32312822;0.001175;98.7452;36.7265;87.8795;328.8397;1.1644E-5;-1.4E-7;0;Amateur
14.32312934;0.001177;98.7454;37.7118;85.3099;327.6218;1.5613E-5;-3.0E-8;0;Amateur
14.32312976;0.0011772;98.7455;38.0069;84.5665;36.785;1.7308E-5;2.0E-8;0;Amateur
14.3231307;0.0011755;98.7456;38.7713;82.5936;345.707;1.873E-5;5.0E-8;0;Amateur
14.32313077;0.001176;98.7457;39.064;81.8172;42.5466;1.8316E-5;4.0E-8;0;Amateur
14.3231314;0.001175;98.7457;39.7554;79.9761;338.1829;1.8967E-5;6.0E-8;0;Amateur
14.32313212;0.0011749;98.7459;40.4017;78.2474;43.0344;2.1379E-5;1.3E-7;0;Amateur
14.32313268;0.0011742;98.7459;40.8095;77.1771;328.0652;2.2903E-5;1.7E-7;0;Amateur
14.32313351;0.0011731;98.746;41.7265;74.7767;337.2165;2.1985E-5;1.4E-7;0;Amateur
14.32313367;0.001173;98.746;41.8004;74.5836;355.0811;2.2297E-5;1.5E-7;0;Amateur
14.32313411;0.0011718;98.7461;42.5019;72.719;341.6456;2.0549E-5;1.0E-7;0;Amateur
14.32313447;0.0011711;98.7461;42.785;71.9708;349.2263;2.0336E-5;1.0E-7;0;Amateur
14.32313466;0.001171;98.7462;43.4889;70.1063;348.7602;1.771E-5;3.0E-8;0;Amateur
14.32313499;0.0011702;98.7462;43.7696;69.3572;343.7835;1.7628E-5;2.0E-8;0;Amateur
14.32313538;0.0011701;98.7463;44.1213;68.4451;342.0997;1.8584E-5;5.0E-8;0;Amateur
14.32313564;0.0011692;98.7463;44.4754;67.5017;352.8201;1.8016E-5;3.0E-8;0;Amateur
14.32313598;0.0011682;98.7464;44.7556;66.7546;345.412;1.7564E-5;2.0E-8;0;Amateur
14.32313627;0.001167;98.7465;45.4009;65.0653;44.5479;1.3989E-5;-7.0E-8;0;Amateur
14.32313654;0.0011658;98.7465;45.8145;63.9667;359.6536;1.313E-5;-1.0E-7;0;Amateur
14.32313697;0.0011649;98.7466;46.4592;62.2476;55.5406;1.3126E-5;-1.0E-7;0;Amateur
14.32313726;0.0011638;98.7467;46.7987;61.3308;351.8132;1.2982E-5;-1.0E-7;0;Amateur
14.32313751;0.001161;98.7469;47.7849;58.7115;353.7888;9.7531E-6;-1.9E-7;0;Amateur
14.32313779;0.0011578;98.7471;48.8438;55.8909;7.7502;6.1789E-6;-2.9E-7;0;Amateur
14.32313803;0.0011554;98.7473;49.7533;53.478;337.4068;5.8415E-6;-3.0E-7;0;Amateur
14.32313912;0.0011517;98.7475;50.8144;50.6287;2.0949;1.0389E-5;-1.7E-7;0;Amateur
14.32313946;0.0011489;98.7477;51.5886;48.5602;0.0599;1.0041E-5;-1.8E-7;0;Amateur
14.32313981;0.0011473;98.7477;51.8737;47.7878;17.6712;1.066E-5;-1.7E-7;0;Amateur
14.32313979;0.0011467;98.7478;52.1672;47.0013;78.0719;1.0144E-5;-1.8E-7;0;Amateur
14.32313994;0.0011454;98.7478;52.5763;45.902;9.396;1.0018E-5;-1.8E-7;0;Amateur
14.32314028;0.0011442;98.7479;52.8585;45.1208;12.1485;1.1195E-5;-1.5E-7;0;Amateur
14.32314115;0.0011405;98.748;53.844;42.4935;10.2684;1.4482E-5;-6.0E-8;0;Amateur
14.32314255;0.0011357;98.7481;54.9038;39.6266;28.3678;1.7766E-5;3.0E-8;0;Amateur
14.32314265;0.0011348;98.7482;55.1138;39.0739;21.7968;1.7775E-5;3.0E-8;0;Amateur
14.32314358;0.0011315;98.7482;55.888;36.9714;19.5127;1.9437E-5;7.0E-8;0;Amateur
14.3231448;0.0011294;98.7483;56.5339;35.2334;81.3204;2.4214E-5;2.0E-7;0;Amateur
14.32314665;0.0011232;98.7484;57.7918;31.7736;31.3376;2.5986E-5;2.5E-7;0;Amateur
14.32314695;0.0011224;98.7485;57.9337;31.3845;36.9007;2.6113E-5;2.5E-7;0;Amateur
14.32314822;0.0011179;98.7486;58.9186;28.6602;31.1645;2.5224E-5;2.3E-7;0;Amateur
14.32314928;0.0011128;98.7487;59.9038;25.9626;27.2505;2.4187E-5;2.0E-7;0;Amateur
14.32314996;0.0011103;98.7488;60.55;24.1454;89.5855;2.2605E-5;1.6E-7;0;Amateur
14.3231506;0.0011076;98.7489;60.9639;22.9641;45.8625;2.1984E-5;1.4E-7;0;Amateur
14.32315139;0.0011029;98.7491;61.9487;20.2;39.4979;1.8149E-5;4.0E-8;0;Amateur
14.32315215;0.0010983;98.7492;62.9277;17.4856;3.0473;1.6344E-5;-1.0E-8;0;Amateur
14.32315304;0.0010926;98.7494;63.9942;14.4474;54.726;1.4534E-5;-6.0E-8;0;Amateur
14.32315313;0.001087;98.7496;64.9076;11.9072;43.2174;1.0827E-5;-1.6E-7;0;Amateur
14.32315331;0.0010828;98.7497;65.6241;9.8611;105.5735;1.0422E-5;-1.7E-7;0;Amateur
14.32315351;0.0010811;98.7497;65.9644;8.8678;44.781;1.0504E-5;-1.7E-7;0;Amateur
14.32315371;0.0010753;98.7499;66.9508;6.0378;46.546;9.9858E-6;-1.8E-7;0;Amateur
14.32315407;0.0010695;98.75;68.0099;3.0427;59.9331;9.6049E-6;-1.9E-7;0;Amateur
14.32315441;0.001064;98.7501;68.9955;0.1778;57.0974;1.0839E-5;-1.6E-7;0;Amateur
14.32315461;0.0010628;98.7502;69.2795;359.3524;68.5343;1.2241E-5;-1.2E-7;0;Amateur
14.32315501;0.0010604;98.7502;69.6409;358.3202;115.6379;1.3747E-5;-8.0E-8;0;Amateur
14.32315539;0.0010574;98.7502;69.9813;357.3362;55.3959;1.4785E-5;-5.0E-8;0;Amateur
14.32315584;0.001053;98.7503;70.6268;355.4616;114.4601;1.4744E-5;-6.0E-8;0;Amateur
14.32315597;0.0010513;98.7503;70.8406;354.8395;127.0395;1.5196E-5;-4.0E-8;0;Amateur
14.32315672;0.0010473;98.7504;71.6139;352.5582;118.6866;1.5583E-5;-3.0E-8;0;Amateur
14.32315693;0.0010449;98.7504;71.9556;351.5422;65.0138;1.5954E-5;-2.0E-8;0;Amateur
14.32315702;0.0010445;98.7504;72.0262;351.3354;65.8858;1.6023E-5;-2.0E-8;0;Amateur
14.32315782;0.0010387;98.7504;73.0121;348.4691;64.3378;1.6567E-5;-1.0E-8;0;Amateur
14.32315888;0.0010323;98.7506;74.072;345.3097;81.3911;1.576E-5;-3.0E-8;0;Amateur
14.32315985;0.0010269;98.7507;75.0569;342.4117;74.4938;1.5245E-5;-4.0E-8;0;Amateur
14.32316039;0.0010231;98.7508;75.703;340.5168;136.3133;1.541E-5;-4.0E-8;0;Amateur
14.32316085;0.0010207;98.7508;76.0429;339.4724;73.2894;1.575E-5;-3.0E-8;0;Amateur
14.32316203;0.001015;98.751;77.1029;336.2358;90.3782;1.4983E-5;-5.0E-8;0;Amateur
14.32316293;0.0010094;98.7512;78.0881;333.2486;85.2447;1.4039E-5;-8.0E-8;0;Amateur
14.32316352;0.0010061;98.7513;78.5926;331.7408;143.1025;1.474E-5;-6.0E-8;0;Amateur
14.32316354;0.0010055;98.7513;78.7336;331.312;143.6309;1.4946E-5;-5.0E-8;0;Amateur
14.32316368;0.0010031;98.7513;79.0739;330.3626;83.0342;1.413E-5;-7.0E-8;0;Amateur
14.32316395;0.0009992;98.7514;79.7194;328.3934;141.7002;1.2905E-5;-1.1E-7;0;Amateur
14.32316472;0.0009991;98.7516;80.1342;326.9658;101.2396;1.4255E-5;-7.0E-8;0;Amateur
14.3231651;0.0009969;98.7517;80.7062;325.212;144.0521;1.3283E-5;-1.0E-7;0;Amateur
14.32316546;0.0009952;98.7517;81.1196;323.9337;96.353;1.3797E-5;-8.0E-8;0;Amateur
14.32316608;0.0009907;98.7519;82.1051;320.8994;92.3018;1.4849E-5;-5.0E-8;0;Amateur
14.32316626;0.0009886;98.7519;82.4572;319.8096;91.6221;1.5207E-5;-4.0E-8;0;Amateur
14.32316673;0.0009866;98.752;83.0918;317.8104;94.2422;1.5344E-5;-4.0E-8;0;Amateur
14.32316716;0.0009832;98.752;83.7379;315.7887;155.8577;1.481E-5;-5.0E-8;0;Amateur
14.32316754;0.0009816;98.752;84.1515;314.4951;109.2616;1.5538E-5;-4.0E-8;0;Amateur
14.32316811;0.0009756;98.7522;85.4897;310.3369;106.6626;1.622E-5;-2.0E-8;0;Amateur
14.32316843;0.0009741;98.7522;85.9956;308.7299;171.9012;1.6814E-5;0;0;Amateur
14.32316892;0.0009715;98.7523;86.6988;306.4873;165.032;1.4973E-5;-5.0E-8;0;Amateur
14.32316915;0.00097;98.7523;87.1828;304.9416;117.9898;1.473E-5;-6.0E-8;0;Amateur
14.32316954;0.0009673;98.7523;87.7568;303.1082;171.1123;1.457E-5;-6.0E-8;0;Amateur
14.32316973;0.000966;98.7524;88.1678;301.7836;111.2825;1.4273E-5;-7.0E-8;0;Amateur
14.32317041;0.0009636;98.7524;88.8148;299.7347;176.8523;1.563E-5;-3.0E-8;0;Amateur
14.32317074;0.0009629;98.7525;89.2212;298.4196;93.4333;1.4727E-5;-6.0E-8;0;Amateur
14.32317146;0.0009606;98.7525;90.1432;295.4523;124.3491;1.2702E-5;-1.1E-7;0;Amateur
14.32317158;0.0009604;98.7526;90.2147;295.2203;129.2057;1.2791E-5;-1.1E-7;0;Amateur
14.32317249;0.000958;98.7527;91.0021;292.6898;192.7675;1.4419E-5;-7.0E-8;0;Amateur
14.32317307;0.0009556;98.7528;91.8479;289.9873;193.8956;1.2708E-5;-1.1E-7;0;Amateur
14.32317414;0.0009532;98.7529;93.1026;285.8997;124.9708;1.0798E-5;-1.6E-7;0;Amateur
14.32317436;0.0009532;98.7529;93.2463;285.4323;139.2378;1.0689E-5;-1.7E-7;0;Amateur
14.32317515;0.0009503;98.7531;94.2243;282.2439;96.1043;1.0379E-5;-1.7E-7;0;Amateur
14.32317617;0.0009478;98.7531;95.2181;278.9731;133.8208;1.2539E-5;-1.2E-7;0;Amateur
14.32317648;0.0009473;98.7532;95.5027;278.0401;147.7882;1.3295E-5;-1.0E-7;0;Amateur
14.32317733;0.000947;98.7533;96.2788;275.5491;152.9559;1.3879E-5;-8.0E-8;0;Amateur
14.32317783;0.000947;98.7533;96.851;273.6791;196.3599;1.4334E-5;-7.0E-8;0;Amateur
14.32317812;0.0009471;98.7534;97.2642;272.3653;147.2486;1.485E-5;-5.0E-8;0;Amateur
14.32317897;0.0009467;98.7535;98.25;269.1667;143.8195;1.7387E-5;1.0E-8;0;Amateur
14.32317922;0.0009471;98.7535;98.8959;267.1282;203.6044;1.68E-5;0;0;Amateur
14.32317996;0.0009478;98.7536;99.8128;264.1372;207.9439;1.6026E-5;-2.0E-8;0;Amateur
14.32318049;0.0009479;98.7536;100.2963;262.5112;158.4618;1.7373E-5;1.0E-8;0;Amateur
14.32318098;0.0009481;98.7537;100.9431;260.4252;222.3033;1.8376E-5;4.0E-8;0;Amateur
14.32318128;0.0009484;98.7537;101.282;259.3329;153.8066;1.8534E-5;5.0E-8;0;Amateur
14.32318208;0.0009495;98.7537;102.2691;256.0963;156.2035;1.7936E-5;3.0E-8;0;Amateur
14.32318213;0.0009494;98.7537;102.3429;255.8515;173.4848;1.7547E-5;2.0E-8;0;Amateur
14.32318283;0.0009511;98.7538;103.3285;252.6374;168.8354;1.5658E-5;-3.0E-8;0;Amateur
14.32318289;0.0009511;98.7538;103.3956;252.4126;151.4723;1.5678E-5;-3.0E-8;0;Amateur
14.32318327;0.0009528;98.7539;104.3142;249.4615;163.958;1.4262E-5;-7.0E-8;0;Amateur
14.32318318;0.000953;98.7539;104.599;248.4798;179.425;1.3209E-5;-1.0E-7;0;Amateur
14.32318329;0.0009539;98.7539;104.9605;247.3608;225.6709;1.2007E-5;-1.3E-7;0;Amateur
14.32318379;0.0009559;98.754;105.8164;244.5768;277.8558;9.2962E-6;-2.0E-7;0;Amateur
14.32318377;0.0009577;98.7541;106.3613;242.8646;181.6944;7.0249E-6;-2.7E-7;0;Amateur
